[Satellite]
VERSION=1.1
NAME=MOLNIYA 1-63
NICKNAME=MOLNIYA 1-63
TLE1=1 15429U 84124A   20157.40437729  .00001001  00000-0  00000-0 0  9993
TLE2=2 15429  63.6969 236.7414 6597591 266.4354  75.7211  2.00374509259875
STATUS=0
